[{"OBJECT_NAME":"STARLINK-11289 [DTC]","OBJECT_ID":"2024-158B","EPOCH":"2026-03-09T17:29:27.635712","MEAN_MOTION":15.69696977,"ECCENTRICITY":0.00010847,"INCLINATION":53.1567,"RA_OF_ASC_NODE":280.8643,"ARG_OF_PERICENTER":58.2282,"MEAN_ANOMALY":301.8842,"EPHEMERIS_TYPE":0,"CLASSIFICATION_TYPE":"U","NORAD_CAT_ID":60991,"ELEMENT_SET_NO":999,"REV_AT_EPOCH":8760,"BSTAR":9.700169e-6,"MEAN_MOTION_DOT":5.86e-6,"MEAN_MOTION_DDOT":0},{"OBJECT_NAME":"DOVE 2","OBJECT_ID":"2013-015C","EPOCH":"2026-03-09T12:05:38.052096","MEAN_MOTION":15.68794519,"ECCENTRICITY":0.00170561,"INCLINATION":64.8558,"RA_OF_ASC_NODE":101.9902,"ARG_OF_PERICENTER":280.6272,"MEAN_ANOMALY":79.2958,"EPHEMERIS_TYPE":0,"CLASSIFICATION_TYPE":"U","NORAD_CAT_ID":39132,"ELEMENT_SET_NO":999,"REV_AT_EPOCH":71099,"BSTAR":0.00072172094,"MEAN_MOTION_DOT":0.00084334,"MEAN_MOTION_DDOT":0}]
